{
  "type": "FeatureCollection",
  "features": [
    {
      "type": "Feature",
      "properties": {
        "norad_id": 31279,
        "name": "FENGYUN 1C DEB",
        "group": "fengyun-1c-debris",
        "lat": 29.876457693281658,
        "lon": -5.784099949003046,
        "alt_km": 839.6949519469599,
        "timestamp": "2025-12-16T23:36:36.478126+00:00",
        "meta_object_name": "FENGYUN 1C DEB",
        "meta_object_id": "1999-025BNM",
        "meta_epoch": "2025-12-13T06:14:04.668000",
        "meta_mean_motion": 14.26309993,
        "meta_eccentricity": 0.00737949,
        "meta_inclination": 98.5172,
        "meta_ra_of_asc_node": 355.5327,
        "meta_arg_of_pericenter": 176.1147,
        "meta_mean_anomaly": 184.0623,
        "meta_ephemeris_type": 0,
        "meta_classification_type": "U",
        "meta_norad_cat_id": 31279,
        "meta_element_set_no": 999,
        "meta_rev_at_epoch": 97236,
        "meta_bstar": 0.00072823892,
        "meta_mean_motion_dot": 1.757e-05,
        "meta_mean_motion_ddot": 0,
        "tle_line1": "1 31279U 99025BNM 25347.25977625  .00001757  00000+0  72824-3 0  9996",
        "tle_line2": "2 31279  98.5172 355.5327 0073794 176.1147 184.0623 14.26309993972360"
      },
      "geometry": {
        "type": "Point",
        "coordinates": [
          -5.784099949003046,
          29.876457693281658
        ]
      }
    },
    {
      "type": "Feature",
      "properties": {
        "norad_id": 31281,
        "name": "FENGYUN 1C DEB",
        "group": "fengyun-1c-debris",
        "lat": -75.64294150660102,
        "lon": 161.74442714532913,
        "alt_km": 591.2571128570162,
        "timestamp": "2025-12-16T23:36:36.478137+00:00",
        "meta_object_name": "FENGYUN 1C DEB",
        "meta_object_id": "1999-025BNP",
        "meta_epoch": "2025-12-15T14:43:36.312672",
        "meta_mean_motion": 15.17560038,
        "meta_eccentricity": 0.01133325,
        "meta_inclination": 98.384,
        "meta_ra_of_asc_node": 125.0441,
        "meta_arg_of_pericenter": 81.8829,
        "meta_mean_anomaly": 279.524,
        "meta_ephemeris_type": 0,
        "meta_classification_type": "U",
        "meta_norad_cat_id": 31281,
        "meta_element_set_no": 999,
        "meta_rev_at_epoch": 99775,
        "meta_bstar": 0.00082834948,
        "meta_mean_motion_dot": 0.00019617,
        "meta_mean_motion_ddot": 0,
        "tle_line1": "1 31281U 99025BNP 25349.61361473  .00019617  00000+0  82835-3 0  9996",
        "tle_line2": "2 31281  98.3840 125.0441 0113332  81.8829 279.5240 15.17560038997757"
      },
      "geometry": {
        "type": "Point",
        "coordinates": [
          161.74442714532913,
          -75.64294150660102
        ]
      }
    },
    {
      "type": "Feature",
      "properties": {
        "norad_id": 31282,
        "name": "FENGYUN 1C DEB",
        "group": "fengyun-1c-debris",
        "lat": -65.68153877556726,
        "lon": 67.54706344072656,
        "alt_km": 673.0527915492521,
        "timestamp": "2025-12-16T23:36:36.478147+00:00",
        "meta_object_name": "FENGYUN 1C DEB",
        "meta_object_id": "1999-025BNQ",
        "meta_epoch": "2025-12-12T11:59:16.641888",
        "meta_mean_motion": 14.43467925,
        "meta_eccentricity": 0.01270675,
        "meta_inclination": 99.2168,
        "meta_ra_of_asc_node": 263.7536,
        "meta_arg_of_pericenter": 287.209,
        "meta_mean_anomaly": 71.5222,
        "meta_ephemeris_type": 0,
        "meta_classification_type": "U",
        "meta_norad_cat_id": 31282,
        "meta_element_set_no": 999,
        "meta_rev_at_epoch": 97117,
        "meta_bstar": 0.00040716141,
        "meta_mean_motion_dot": 1.46e-05,
        "meta_mean_motion_ddot": 0,
        "tle_line1": "1 31282U 99025BNQ 25346.49949817  .00001460  00000+0  40716-3 0  9993",
        "tle_line2": "2 31282  99.2168 263.7536 0127067 287.2090  71.5222 14.43467925971175"
      },
      "geometry": {
        "type": "Point",
        "coordinates": [
          67.54706344072656,
          -65.68153877556726
        ]
      }
    },
    {
      "type": "Feature",
      "properties": {
        "norad_id": 31284,
        "name": "FENGYUN 1C DEB",
        "group": "fengyun-1c-debris",
        "lat": -16.271530254290823,
        "lon": -97.24057024474025,
        "alt_km": 994.6526676450039,
        "timestamp": "2025-12-16T23:36:36.478158+00:00",
        "meta_object_name": "FENGYUN 1C DEB",
        "meta_object_id": "1999-025BNS",
        "meta_epoch": "2025-12-12T12:10:56.094816",
        "meta_mean_motion": 13.97898481,
        "meta_eccentricity": 0.01429897,
        "meta_inclination": 99.7223,
        "meta_ra_of_asc_node": 80.8899,
        "meta_arg_of_pericenter": 59.3659,
        "meta_mean_anomaly": 302.1512,
        "meta_ephemeris_type": 0,
        "meta_classification_type": "U",
        "meta_norad_cat_id": 31284,
        "meta_element_set_no": 999,
        "meta_rev_at_epoch": 95159,
        "meta_bstar": 0.00078444655,
        "meta_mean_motion_dot": 1.164e-05,
        "meta_mean_motion_ddot": 0,
        "tle_line1": "1 31284U 99025BNS 25346.50759369  .00001164  00000+0  78445-3 0  9999",
        "tle_line2": "2 31284  99.7223  80.8899 0142989  59.3659 302.1512 13.97898481951595"
      },
      "geometry": {
        "type": "Point",
        "coordinates": [
          -97.24057024474025,
          -16.271530254290823
        ]
      }
    },
    {
      "type": "Feature",
      "properties": {
        "norad_id": 31285,
        "name": "FENGYUN 1C DEB",
        "group": "fengyun-1c-debris",
        "lat": -70.68052648910279,
        "lon": 125.9701995487848,
        "alt_km": 780.0510809768311,
        "timestamp": "2025-12-16T23:36:36.478168+00:00",
        "meta_object_name": "FENGYUN 1C DEB",
        "meta_object_id": "1999-025BNT",
        "meta_epoch": "2025-12-15T10:06:48.815712",
        "meta_mean_motion": 14.26042115,
        "meta_eccentricity": 0.01998366,
        "meta_inclination": 98.5195,
        "meta_ra_of_asc_node": 329.7632,
        "meta_arg_of_pericenter": 178.9732,
        "meta_mean_anomaly": 335.1674,
        "meta_ephemeris_type": 0,
        "meta_classification_type": "U",
        "meta_norad_cat_id": 31285,
        "meta_element_set_no": 999,
        "meta_rev_at_epoch": 97337,
        "meta_bstar": 0.0001752464,
        "meta_mean_motion_dot": 4.7e-06,
        "meta_mean_motion_ddot": 0,
        "tle_line1": "1 31285U 99025BNT 25349.42139833  .00000470  00000+0  17525-3 0  9993",
        "tle_line2": "2 31285  98.5195 329.7632 0199836 178.9732 335.1674 14.26042115973377"
      },
      "geometry": {
        "type": "Point",
        "coordinates": [
          125.9701995487848,
          -70.68052648910279
        ]
      }
    },
    {
      "type": "Feature",
      "properties": {
        "norad_id": 31286,
        "name": "FENGYUN 1C DEB",
        "group": "fengyun-1c-debris",
        "lat": -32.245337187510856,
        "lon": -110.46655800637348,
        "alt_km": 791.7344280590523,
        "timestamp": "2025-12-16T23:36:36.478198+00:00",
        "meta_object_name": "FENGYUN 1C DEB",
        "meta_object_id": "1999-025BNU",
        "meta_epoch": "2025-12-14T11:00:24.173568",
        "meta_mean_motion": 14.22784922,
        "meta_eccentricity": 0.00800535,
        "meta_inclination": 100.8584,
        "meta_ra_of_asc_node": 239.4728,
        "meta_arg_of_pericenter": 275.0635,
        "meta_mean_anomaly": 84.1402,
        "meta_ephemeris_type": 0,
        "meta_classification_type": "U",
        "meta_norad_cat_id": 31286,
        "meta_element_set_no": 999,
        "meta_rev_at_epoch": 64044,
        "meta_bstar": 0.0029387489,
        "meta_mean_motion_dot": 6.756e-05,
        "meta_mean_motion_ddot": 0,
        "tle_line1": "1 31286U 99025BNU 25348.45861312  .00006756  00000+0  29387-2 0  9991",
        "tle_line2": "2 31286 100.8584 239.4728 0080053 275.0635  84.1402 14.22784922640445"
      },
      "geometry": {
        "type": "Point",
        "coordinates": [
          -110.46655800637348,
          -32.245337187510856
        ]
      }
    },
    {
      "type": "Feature",
      "properties": {
        "norad_id": 31287,
        "name": "FENGYUN 1C DEB",
        "group": "fengyun-1c-debris",
        "lat": 78.23550490785902,
        "lon": -79.98736643364461,
        "alt_km": 777.2472953661754,
        "timestamp": "2025-12-16T23:36:36.478209+00:00",
        "meta_object_name": "FENGYUN 1C DEB",
        "meta_object_id": "1999-025BNV",
        "meta_epoch": "2025-12-16T02:58:51.303360",
        "meta_mean_motion": 14.28047654,
        "meta_eccentricity": 0.0027464,
        "meta_inclination": 99.4086,
        "meta_ra_of_asc_node": 46.3234,
        "meta_arg_of_pericenter": 53.2119,
        "meta_mean_anomaly": 307.1574,
        "meta_ephemeris_type": 0,
        "meta_classification_type": "U",
        "meta_norad_cat_id": 31287,
        "meta_element_set_no": 999,
        "meta_rev_at_epoch": 96734,
        "meta_bstar": 0.0010645994,
        "meta_mean_motion_dot": 2.605e-05,
        "meta_mean_motion_ddot": 0,
        "tle_line1": "1 31287U 99025BNV 25350.12420490  .00002605  00000+0  10646-2 0  9994",
        "tle_line2": "2 31287  99.4086  46.3234 0027464  53.2119 307.1574 14.28047654967342"
      },
      "geometry": {
        "type": "Point",
        "coordinates": [
          -79.98736643364461,
          78.23550490785902
        ]
      }
    }
  ]
}